[{"OBJECT_NAME":"STARLINK-34933","OBJECT_ID":"2025-179U","EPOCH":"2026-03-09T16:18:19.188864","MEAN_MOTION":15.05661498,"ECCENTRICITY":8.946e-5,"INCLINATION":97.603,"RA_OF_ASC_NODE":112.9057,"ARG_OF_PERICENTER":125.2726,"MEAN_ANOMALY":234.8585,"EPHEMERIS_TYPE":0,"CLASSIFICATION_TYPE":"U","NORAD_CAT_ID":65253,"ELEMENT_SET_NO":999,"REV_AT_EPOCH":3181,"BSTAR":0.00098826717,"MEAN_MOTION_DOT":0.00014232,"MEAN_MOTION_DDOT":0},{"OBJECT_NAME":"OBJECT F","OBJECT_ID":"2025-292F","EPOCH":"2026-03-09T22:41:00.950496","MEAN_MOTION":15.06065121,"ECCENTRICITY":0.00151037,"INCLINATION":97.6416,"RA_OF_ASC_NODE":145.7425,"ARG_OF_PERICENTER":346.7214,"MEAN_ANOMALY":13.3613,"EPHEMERIS_TYPE":0,"CLASSIFICATION_TYPE":"U","NORAD_CAT_ID":66998,"ELEMENT_SET_NO":999,"REV_AT_EPOCH":1351,"BSTAR":0.00047210602,"MEAN_MOTION_DOT":6.85e-5,"MEAN_MOTION_DDOT":0}]
